TEIKYOSAT-4 (OORURI)    
1 49396U 21102B   26068.67534185  .00002438  00000+0  15740-3 0  9994
2 49396  97.3797 101.9931 0010345 276.5421  83.4630 15.09119208237719
STARLINK-4512           
1 53398U 22097L   26068.41431080  .00000043  00000+0  20778-4 0  9995
2 53398  53.2172 125.3581 0001372  91.9558 268.1591 15.08840498198473
